HIMAWARI-8              
1 40267U 14060A   23293.37135362 -.00000269  00000+0  00000+0 0  9995
2 40267   0.0128 153.3269 0000610  56.4077  93.1912  1.00269615 33020
